{
"type": "FeatureCollection",
"name": "mapa_kepler",
"features": [
{ "type": "Feature", "properties": { "zone": "Zona Leste", "neighborhood": "Tatuape", "lon": -46.5772, "lat": -23.5405, "a5_cell_id": 3.9989910322292982e+18 }, "geometry": { "type": "Polygon", "coordinates": [ [ [ -46.571124712026347, -23.541325417310802 ], [ -46.582468106498254, -23.537315788711499 ], [ -46.593816141424895, -23.538484360806763 ], [ -46.589264995282178, -23.548206116479903 ], [ -46.577553942257964, -23.548837422733975 ], [ -46.571124712026347, -23.541325417310802 ] ] ] } },
{ "type": "Feature", "properties": { "zone": "Zona Sul", "neighborhood": "Moema", "lon": -46.6575, "lat": -23.6001, "a5_cell_id": 3.99907878700109e+18 }, "geometry": { "type": "Polygon", "coordinates": [ [ [ -46.652399107541669, -23.596960767098953 ], [ -46.66411029880328, -23.596322460579557 ], [ -46.659573769330223, -23.606050764983955 ], [ -46.6482374926494, -23.610069856113451 ], [ -46.641795962559058, -23.602558449624311 ], [ -46.652399107541669, -23.596960767098953 ] ] ] } },
{ "type": "Feature", "properties": { "zone": "Zona Oeste", "neighborhood": "Pinheiros", "lon": -46.6967, "lat": -23.5615, "a5_cell_id": 3.9990812609022525e+18 }, "geometry": { "type": "Polygon", "coordinates": [ [ [ -46.677732758508682, -23.561965886503369 ], [ -46.689078148437829, -23.5579490321606 ], [ -46.70042956950806, -23.559109774089386 ], [ -46.695879773728393, -23.568833476165853 ], [ -46.684165739472348, -23.569472659260668 ], [ -46.677732758508682, -23.561965886503369 ] ] ] } }
]
}
